1998-067XK              
1 65731U 98067XK  25275.96440043  .00077108  00000+0  11962-2 0  9996
2 65731  51.6319 132.6752 0000799 221.5102 138.5828 15.53300348  2103
RSP-03                  
1 65732U 98067XL  25275.83491296  .00084904  00000+0  13043-2 0  9993
2 65732  51.6319 133.3105 0000823 229.7894 130.3024 15.53527907  2098
1998-067XM              
1 65733U 98067XM  25275.96195260  .00101945  00000+0  15369-2 0  9998
2 65733  51.6317 132.6598 0002916 101.4423 258.6895 15.53957768  2119
