[{"OBJECT_NAME":"1998-067XK","OBJECT_ID":"1998-067XK","EPOCH":"2025-10-02T23:08:44.197152","MEAN_MOTION":15.53300348,"ECCENTRICITY":7.996e-5,"INCLINATION":51.6319,"RA_OF_ASC_NODE":132.6752,"ARG_OF_PERICENTER":221.5102,"MEAN_ANOMALY":138.5828,"EPHEMERIS_TYPE":0,"CLASSIFICATION_TYPE":"U","NORAD_CAT_ID":65731,"ELEMENT_SET_NO":999,"REV_AT_EPOCH":210,"BSTAR":0.0011961863,"MEAN_MOTION_DOT":0.00077108,"MEAN_MOTION_DDOT":0},{"OBJECT_NAME":"RSP-03","OBJECT_ID":"1998-067XL","EPOCH":"2025-10-02T20:02:16.479744","MEAN_MOTION":15.53527907,"ECCENTRICITY":8.233e-5,"INCLINATION":51.6319,"RA_OF_ASC_NODE":133.3105,"ARG_OF_PERICENTER":229.7894,"MEAN_ANOMALY":130.3024,"EPHEMERIS_TYPE":0,"CLASSIFICATION_TYPE":"U","NORAD_CAT_ID":65732,"ELEMENT_SET_NO":999,"REV_AT_EPOCH":209,"BSTAR":0.0013042921,"MEAN_MOTION_DOT":0.00084904,"MEAN_MOTION_DDOT":0},{"OBJECT_NAME":"1998-067XM","OBJECT_ID":"1998-067XM","EPOCH":"2025-10-02T23:05:12.704640","MEAN_MOTION":15.53957768,"ECCENTRICITY":0.00029161,"INCLINATION":51.6317,"RA_OF_ASC_NODE":132.6598,"ARG_OF_PERICENTER":101.4423,"MEAN_ANOMALY":258.6895,"EPHEMERIS_TYPE":0,"CLASSIFICATION_TYPE":"U","NORAD_CAT_ID":65733,"ELEMENT_SET_NO":999,"REV_AT_EPOCH":211,"BSTAR":0.0015369151,"MEAN_MOTION_DOT":0.00101945,"MEAN_MOTION_DDOT":0}]
